start=new Date('2022-12-23T00:00:00.000Z').valueOf();
sats=[{"PERIOD":"95.592","TLE_LINE2":"2 48303  53.0553 317.6505 0001689  51.9721 308.1420 15.06405108 91364","OBJECT_TYPE":"PAYLOAD","SITE":"AFETR","ELEMENT_SET_NO":"999","REF_FRAME":"TEME","OBJECT_ID":"2021-036AD","BSTAR":"-0.00002163600000","EPOCH":"2022-12-22T15:19:36.100992","MEAN_ANOMALY":"308.1420","TIME_SYSTEM":"UTC","CLASSIFICATION_TYPE":"U","OBJECT_NAME":"STARLINK-2530","MEAN_MOTION_DDOT":"0.0000000000000","INCLINATION":"53.0553","GP_ID":"221234814","MEAN_ELEMENT_THEORY":"SGP4","DECAY_DATE":null,"MEAN_MOTION":"15.06405108","TLE_LINE1":"1 48303U 21036AD  22356.63861228 -.00000604  00000-0 -21636-4 0  9998","RCS_SIZE":"LARGE","PERIAPSIS":"546.028","CENTER_NAME":"EARTH","RA_OF_ASC_NODE":"317.6505","EPHEMERIS_TYPE":"0","NORAD_CAT_ID":"48303","MEAN_MOTION_DOT":"-0.00000604","SEMIMAJOR_AXIS":"6925.333","FILE":"3719655","REV_AT_EPOCH":"9136","LAUNCH_DATE":"2021-04-29","ARG_OF_PERICENTER":"51.9721","APOAPSIS":"548.368","ECCENTRICITY":"0.00016890","COUNTRY_CODE":"US"},{"MEAN_MOTION_DDOT":"0.0000000000000","INCLINATION":"53.0553","DECAY_DATE":null,"GP_ID":"221235066","MEAN_ELEMENT_THEORY":"SGP4","MEAN_MOTION":"15.06400322","TLE_LINE1":"1 48304U 21036AE  22356.90126796  .00011093  00000-0  76244-3 0  9999","RCS_SIZE":"LARGE","CENTER_NAME":"EARTH","PERIAPSIS":"546.059","RA_OF_ASC_NODE":"316.4685","EPHEMERIS_TYPE":"0","MEAN_MOTION_DOT":"0.00011093","NORAD_CAT_ID":"48304","FILE":"3719655","SEMIMAJOR_AXIS":"6925.348","REV_AT_EPOCH":"9140","LAUNCH_DATE":"2021-04-29","ARG_OF_PERICENTER":"62.8881","APOAPSIS":"548.366","ECCENTRICITY":"0.00016660","COUNTRY_CODE":"US","PERIOD":"95.592","TLE_LINE2":"2 48304  53.0553 316.4685 0001666  62.8881 297.2278 15.06400322 91401","OBJECT_TYPE":"PAYLOAD","SITE":"AFETR","ELEMENT_SET_NO":"999","REF_FRAME":"TEME","OBJECT_ID":"2021-036AE","BSTAR":"0.00076244000000","EPOCH":"2022-12-22T21:37:49.551744","MEAN_ANOMALY":"297.2278","CLASSIFICATION_TYPE":"U","OBJECT_NAME":"STARLINK-2524","TIME_SYSTEM":"UTC"},{"OBJECT_TYPE":"PAYLOAD","SITE":"AFETR","TLE_LINE2":"2 48305  53.0534 317.6764 0001870  82.8112 277.3089 15.06413868 91361","PERIOD":"95.591","EPOCH":"2022-12-22T15:09:00.127008","OBJECT_NAME":"STARLINK-2519","CLASSIFICATION_TYPE":"U","TIME_SYSTEM":"UTC","MEAN_ANOMALY":"277.3089","OBJECT_ID":"2021-036AF","ELEMENT_SET_NO":"999","REF_FRAME":"TEME","BSTAR":"0.00064155000000","RA_OF_ASC_NODE":"317.6764","CENTER_NAME":"EARTH","PERIAPSIS":"545.876","RCS_SIZE":"LARGE","EPHEMERIS_TYPE":"0","MEAN_MOTION_DDOT":"0.0000000000000","TLE_LINE1":"1 48305U 21036AF  22356.63125147  .00009291  00000-0  64155-3 0  9994","GP_ID":"221235317","MEAN_MOTION":"15.06413868","DECAY_DATE":null,"MEAN_ELEMENT_THEORY":"SGP4","INCLINATION":"53.0534","APOAPSIS":"548.466","ARG_OF_PERICENTER":"82.8112","COUNTRY_CODE":"US","ECCENTRICITY":"0.00018700","LAUNCH_DATE":"2021-04-29","REV_AT_EPOCH":"9136","FILE":"3719655","SEMIMAJOR_AXIS":"6925.306","MEAN_MOTION_DOT":"0.00009291","NORAD_CAT_ID":"48305"},{"GP_ID":"221234065","DECAY_DATE":null,"MEAN_MOTION":"15.06406759","MEAN_ELEMENT_THEORY":"SGP4","INCLINATION":"53.0563","TLE_LINE1":"1 48306U 21036AG  22356.62849440  .00000539  00000-0  55085-4 0  9992","MEAN_MOTION_DDOT":"0.0000000000000","EPHEMERIS_TYPE":"0","CENTER_NAME":"EARTH","PERIAPSIS":"545.954","RCS_SIZE":"LARGE","RA_OF_ASC_NODE":"317.7043","FILE":"3719655","SEMIMAJOR_AXIS":"6925.328","NORAD_CAT_ID":"48306","MEAN_MOTION_DOT":"0.00000539","LAUNCH_DATE":"2021-04-29","REV_AT_EPOCH":"9136","ECCENTRICITY":"0.00017890","COUNTRY_CODE":"US","APOAPSIS":"548.432","ARG_OF_PERICENTER":"53.8303","PERIOD":"95.592","TLE_LINE2":"2 48306  53.0563 317.7043 0001789  53.8303 306.2851 15.06406759 91364","SITE":"AFETR","OBJECT_TYPE":"PAYLOAD","BSTAR":"0.00005508500000","ELEMENT_SET_NO":"999","REF_FRAME":"TEME","OBJECT_ID":"2021-036AG","MEAN_ANOMALY":"306.2851","CLASSIFICATION_TYPE":"U","TIME_SYSTEM":"UTC","OBJECT_NAME":"STARLINK-2523","EPOCH":"2022-12-22T15:05:01.916160"},{"EPHEMERIS_TYPE":"0","RA_OF_ASC_NODE":"317.7225","PERIAPSIS":"546.014","CENTER_NAME":"EARTH","RCS_SIZE":"LARGE","TLE_LINE1":"1 48307U 21036AH  22356.62481687  .00000306  00000-0  39469-4 0  9998","GP_ID":"221234315","DECAY_DATE":null,"MEAN_ELEMENT_THEORY":"SGP4","MEAN_MOTION":"15.06400233","INCLINATION":"53.0568","MEAN_MOTION_DDOT":"0.0000000000000","COUNTRY_CODE":"US","ECCENTRICITY":"0.00017310","APOAPSIS":"548.412","ARG_OF_PERICENTER":"60.0819","LAUNCH_DATE":"2021-04-29","REV_AT_EPOCH":"9136","FILE":"3719655","SEMIMAJOR_AXIS":"6925.348","MEAN_MOTION_DOT":"0.00000306","NORAD_CAT_ID":"48307","SITE":"AFETR","OBJECT_TYPE":"PAYLOAD","TLE_LINE2":"2 48307  53.0568 317.7225 0001731  60.0819 300.0342 15.06400233 91369","PERIOD":"95.592","CLASSIFICATION_TYPE":"U","OBJECT_NAME":"STARLINK-2528","TIME_SYSTEM":"UTC","MEAN_ANOMALY":"300.0342","EPOCH":"2022-12-22T14:59:44.177568","BSTAR":"0.00003946900000","OBJECT_ID":"2021-036AH","ELEMENT_SET_NO":"999","REF_FRAME":"TEME"},{"SEMIMAJOR_AXIS":"6925.365","FILE":"3719655","NORAD_CAT_ID":"48308","MEAN_MOTION_DOT":"0.00002623","LAUNCH_DATE":"2021-04-29","REV_AT_EPOCH":"9140","APOAPSIS":"548.422","ARG_OF_PERICENTER":"89.3636","ECCENTRICITY":"0.00017200","COUNTRY_CODE":"US","MEAN_MOTION_DDOT":"0.0000000000000","MEAN_MOTION":"15.06394512","GP_ID":"221235566","DECAY_DATE":null,"MEAN_ELEMENT_THEORY":"SGP4","INCLINATION":"53.0546","TLE_LINE1":"1 48308U 21036AJ  22356.88652631  .00002623  00000-0  19498-3 0  9999","CENTER_NAME":"EARTH","PERIAPSIS":"546.039","RCS_SIZE":"LARGE","RA_OF_ASC_NODE":"316.5413","EPHEMERIS_TYPE":"0","ELEMENT_SET_NO":"999","REF_FRAME":"TEME","OBJECT_ID":"2021-036AJ","BSTAR":"0.00019498000000","EPOCH":"2022-12-22T21:16:35.873184","MEAN_ANOMALY":"270.7550","OBJECT_NAME":"STARLINK-2532","CLASSIFICATION_TYPE":"U","TIME_SYSTEM":"UTC","PERIOD":"95.592","TLE_LINE2":"2 48308  53.0546 316.5413 0001720  89.3636 270.7550 15.06394512 91402","OBJECT_TYPE":"PAYLOAD","SITE":"AFETR"},{"MEAN_ANOMALY":"290.7723","CLASSIFICATION_TYPE":"U","OBJECT_NAME":"STARLINK-2517","TIME_SYSTEM":"UTC","EPOCH":"2022-12-22T14:49:07.125312","BSTAR":"-0.00004002700000","ELEMENT_SET_NO":"999","REF_FRAME":"TEME","OBJECT_ID":"2021-036AK","SITE":"AFETR","OBJECT_TYPE":"PAYLOAD","PERIOD":"95.592","TLE_LINE2":"2 48309  53.0562 317.7530 0001511  69.3428 290.7723 15.06400380 91369","ECCENTRICITY":"0.00015110","COUNTRY_CODE":"US","ARG_OF_PERICENTER":"69.3428","APOAPSIS":"548.259","NORAD_CAT_ID":"48309","MEAN_MOTION_DOT":"-0.00000878","FILE":"3719655","SEMIMAJOR_AXIS":"6925.347","REV_AT_EPOCH":"9136","LAUNCH_DATE":"2021-04-29","EPHEMERIS_TYPE":"0","RCS_SIZE":"LARGE","CENTER_NAME":"EARTH","PERIAPSIS":"546.166","RA_OF_ASC_NODE":"317.7530","INCLINATION":"53.0562","GP_ID":"221235817","MEAN_MOTION":"15.06400380","DECAY_DATE":null,"MEAN_ELEMENT_THEORY":"SGP4","TLE_LINE1":"1 48309U 21036AK  22356.61744358 -.00000878  00000-0 -40027-4 0  9994","MEAN_MOTION_DDOT":"0.0000000000000"},{"MEAN_ANOMALY":"281.8906","OBJECT_NAME":"STARLINK-2536","CLASSIFICATION_TYPE":"U","TIME_SYSTEM":"UTC","EPOCH":"2022-12-22T16:19:21.936864","BSTAR":"0.00052474000000","ELEMENT_SET_NO":"999","REF_FRAME":"TEME","OBJECT_ID":"2021-036AL","SITE":"AFETR","OBJECT_TYPE":"PAYLOAD","PERIOD":"95.592","TLE_LINE2":"2 48310  53.0517 317.4742 0001987  78.2305 281.8906 15.06410055 91378","ECCENTRICITY":"0.00019870","COUNTRY_CODE":"US","APOAPSIS":"548.559","ARG_OF_PERICENTER":"78.2305","SEMIMAJOR_AXIS":"6925.318","FILE":"3719655","NORAD_CAT_ID":"48310","MEAN_MOTION_DOT":"0.00007545","LAUNCH_DATE":"2021-04-29","REV_AT_EPOCH":"9137","EPHEMERIS_TYPE":"0","CENTER_NAME":"EARTH","PERIAPSIS":"545.807","RCS_SIZE":"LARGE","RA_OF_ASC_NODE":"317.4742","DECAY_DATE":null,"GP_ID":"221234565","MEAN_MOTION":"15.06410055","MEAN_ELEMENT_THEORY":"SGP4","INCLINATION":"53.0517","TLE_LINE1":"1 48310U 21036AL  22356.68011501  .00007545  00000-0  52474-3 0  9994","MEAN_MOTION_DDOT":"0.0000000000000"},{"MEAN_ELEMENT_THEORY":"SGP4","GP_ID":"221234815","DECAY_DATE":null,"MEAN_MOTION":"15.06390585","INCLINATION":"53.0548","TLE_LINE1":"1 48311U 21036AM  22356.67642338  .00002607  00000-0  19391-3 0  9997","MEAN_MOTION_DDOT":"0.0000000000000","EPHEMERIS_TYPE":"0","CENTER_NAME":"EARTH","PERIAPSIS":"546.080","RCS_SIZE":"LARGE","RA_OF_ASC_NODE":"317.4785","FILE":"3719655","SEMIMAJOR_AXIS":"6925.377","NORAD_CAT_ID":"48311","MEAN_MOTION_DOT":"0.00002607","LAUNCH_DATE":"2021-04-29","REV_AT_EPOCH":"9137","ECCENTRICITY":"0.00016780","COUNTRY_CODE":"US","APOAPSIS":"548.404","ARG_OF_PERICENTER":"61.0309","PERIOD":"95.593","TLE_LINE2":"2 48311  53.0548 317.4785 0001678  61.0309 299.0848 15.06390585 91372","SITE":"AFETR","OBJECT_TYPE":"PAYLOAD","BSTAR":"0.00019391000000","ELEMENT_SET_NO":"999","REF_FRAME":"TEME","OBJECT_ID":"2021-036AM","MEAN_ANOMALY":"299.0848","OBJECT_NAME":"STARLINK-2534","CLASSIFICATION_TYPE":"U","TIME_SYSTEM":"UTC","EPOCH":"2022-12-22T16:14:02.980032"},{"APOAPSIS":"548.416","ARG_OF_PERICENTER":"67.4194","COUNTRY_CODE":"US","ECCENTRICITY":"0.00017670","LAUNCH_DATE":"2021-04-29","REV_AT_EPOCH":"9136","SEMIMAJOR_AXIS":"6925.327","FILE":"3719655","MEAN_MOTION_DOT":"0.00002344","NORAD_CAT_ID":"48312","RA_OF_ASC_NODE":"317.8014","CENTER_NAME":"EARTH","PERIAPSIS":"545.968","RCS_SIZE":"LARGE","EPHEMERIS_TYPE":"0","MEAN_MOTION_DDOT":"0.0000000000000","TLE_LINE1":"1 48312U 21036AN  22356.60639111  .00002344  00000-0  17617-3 0  9993","MEAN_ELEMENT_THEORY":"SGP4","GP_ID":"221235067","DECAY_DATE":null,"MEAN_MOTION":"15.06406996","INCLINATION":"53.0545","EPOCH":"2022-12-22T14:33:12.191904","CLASSIFICATION_TYPE":"U","OBJECT_NAME":"STARLINK-2061","TIME_SYSTEM":"UTC","MEAN_ANOMALY":"292.6982","OBJECT_ID":"2021-036AN","ELEMENT_SET_NO":"999","REF_FRAME":"TEME","BSTAR":"0.00017617000000","OBJECT_TYPE":"PAYLOAD","SITE":"AFETR","TLE_LINE2":"2 48312  53.0545 317.8014 0001767  67.4194 292.6982 15.06406996 91361","PERIOD":"95.592"}];
